satname,norad_id,inclination_deg,eccentricity,mean_motion_rev_per_day,perigee_km,apogee_km,l1,l2
STARLINK-1572,46060,53.1605,0.0001352,15.30204554,474.2749006684926,476.1280433913289,1 46060U 20055AK  26203.40831730  .00001985  00000+0  79132-4 0  9995,2 46060  53.1605 208.3573 0001352  82.1718 277.9437 15.30204554329668
STARLINK-1573,46061,53.1589,0.0001292,15.31706464,469.83585402751396,471.60559886402734,1 46061U 20055AL  26203.79935025  .00001201  00000+0  50448-4 0  9990,2 46061  53.1589 205.2187 0001292  85.6224 274.4925 15.31706464329774
STARLINK-1577,46063,53.1563,0.000126,15.31737482,469.7653211890156,471.49121003594973,1 46063U 20055AN  26203.30531614  .00009318  00000+0  31128-3 0  9995,2 46063  53.1563 207.5116 0001260  72.7323 287.3816 15.31737482329694
STARLINK-1583,46064,53.1594,0.0001823,15.31708481,469.46616825516685,471.963259590063,1 46064U 20055AP  26203.71086676  .00000668  00000+0  33280-4 0  9995,2 46064  53.1594 206.1240 0001823  67.2588 292.8606 15.31708481329740
STARLINK-1525,46066,53.0476,0.0004549,15.47227371,421.746561138958,427.9359107380151,1 46066U 20055AR  26203.91874673  .00142940  00000+0  27210-2 0  9995,2 46066  53.0476 180.6544 0004549  30.8251 329.3022 15.47227371330093
STARLINK-1536,46070,53.1583,0.0001156,15.31725058,469.8735781040441,471.4570211957225,1 46070U 20055AV  26203.25539350  .00005144  00000+0  17726-3 0  9993,2 46070  53.1583 195.6314 0001156  92.7766 267.3368 15.31725058329852
STARLINK-1542,46073,53.1576,0.0001251,15.31722558,469.81596572678427,471.5295379266918,1 46073U 20055AY  26203.27976755  .00004432  00000+0  15439-3 0  9990,2 46073  53.1576 198.4863 0001251  79.6937 280.4205 15.31722558329800
STARLINK-1549,46074,53.0471,0.0002607,15.34850089,459.5827493865563,463.14886615052546,1 46074U 20055AZ  26203.33746953  .00031531  00000+0  92701-3 0  9990,2 46074  53.0471 194.5039 0002607  55.1158 305.0088 15.34850089329847
STARLINK-1551,46075,53.159,0.0001331,15.31715763,469.78142767193276,471.6045862197825,1 46075U 20055BA  26203.24639889  .00001733  00000+0  67577-4 0  9995,2 46075  53.1590 195.6095 0001331  97.7125 262.4027 15.31715763329849
STARLINK-1552,46076,53.1577,0.000195,15.31702626,469.3966377798606,472.0676967550935,1 46076U 20055BB  26203.95012840  .00000807  00000+0  37769-4 0  9997,2 46076  53.1577 191.9174 0001950  88.3192 271.8033 15.31702626329945
STARLINK-1559,46077,53.0203,0.0004505,15.42244343,436.4157390523578,442.5584183472665,1 46077U 20055BC  26203.17208690  .00043992  00000+0  10114-2 0  9997,2 46077  53.0203 161.6125 0004505  55.7914 304.3516 15.42244343330253
STARLINK-1566,46079,53.1591,0.0001474,15.31693562,469.749659337951,471.7687139337713,1 46079U 20055BE  26203.69377973 -.00000588  00000+0 -71937-5 0  9996,2 46079  53.1591 192.9648 0001474  88.2132 271.9039 15.31693562329928
STARLINK-1568,46080,53.0559,0.0002798,15.57847225,391.99389307613274,395.78351866113644,1 46080U 20055BF  26203.00062725  .00051322  00000+0  67863-3 0  9990,2 46080  53.0559 106.4834 0002798 132.7867 227.3380 15.57847225331056
STARLINK-1578,46082,53.1596,0.0001231,15.31708833,469.8705711219982,471.55675815563154,1 46082U 20055BH  26203.69815490  .00001659  00000+0  65202-4 0  9996,2 46082  53.1596 193.4637 0001231  90.6312 269.4831 15.31708833329918
STARLINK-1579,46083,53.1582,0.0001294,15.31705224,469.83818012963184,471.61066546585243,1 46083U 20055BJ  26203.68444924  .00000559  00000+0  29766-4 0  9999,2 46083  53.1582 193.0580 0001294  92.3942 267.7208 15.31705224329914
STARLINK-1623,46129,53.0339,0.000681,15.89955985,297.8566994085131,306.9555991778507,1 46129U 20057N   26204.00002315  .00297311  43528-4  98048-3 0  9992,2 46129  53.0339 307.0300 0006810 330.5212  89.6524 15.89955985  5969
STARLINK-1596,46141,53.031,0.0002526,15.67254735,365.0581884480307,368.4657113975318,1 46141U 20057AA  26203.76116866  .00072781  00000+0  66363-3 0  9995,2 46141  53.0310 296.5912 0002526 305.0333  55.0445 15.67254735328300
STARLINK-1597,46142,53.0354,0.0006878,15.88091911,303.03432304568105,312.2312679763854,1 46142U 20057AB  26204.00002315  .00268113  00000+0  93412-3 0  9998,2 46142  53.0354 347.0768 0006878 297.7583 109.8668 15.88091911  6012
STARLINK-1608,46146,53.1566,0.0004209,15.39951799,443.37933280148354,449.12410322430696,1 46146U 20057AF  26202.38787346  .00037732  00000+0  93817-3 0  9995,2 46146  53.1566  44.5099 0004209 125.4230 234.7168 15.39951799326709
STARLINK-1595,46159,53.0355,0.0004834,15.84370646,314.8604713295008,321.33439077744333,1 46159U 20057AU  26204.00002315  .00215597  00000+0  90681-3 0  9999,2 46159  53.0355 350.7440 0004834 286.8804 216.9139 15.84370646  5961
STARLINK-1598,46160,53.042,0.0006287,15.82046583,320.43973068748255,328.8678198082789,1 46160U 20057AV  26203.79035484  .00163995  00000+0  77454-3 0  9996,2 46160  53.0420 338.3357 0006287 330.0572  30.0090 15.82046583328960
STARLINK-1626,46167,53.0345,0.0008572,15.88637929,300.3710375896244,311.8304948160021,1 46167U 20057BC  26204.00002315  .00222182  00000+0  75692-3 0  9991,2 46167  53.0345 345.1957 0008572 310.1245 244.6121 15.88637929  5977
STARLINK-1633,46171,53.0224,0.0015135,16.13333841,227.7003515167262,247.72653080211512,1 46171U 20057BG  26203.54650375  .01117297  82522-3  91563-3 0  9998,2 46171  53.0224 304.1886 0015135 334.3057  25.7224 16.13333841329422
STARLINK-1640,46173,53.0353,0.0005095,15.84695667,313.77053659753983,320.5930664562957,1 46173U 20057BJ  26204.00002315  .00224038  00000+0  92671-3 0  9996,2 46173  53.0353 351.7214 0005095 290.8414  32.9878 15.84695667  6002
STARLINK-1641,46174,53.0449,0.0004666,15.69645015,356.76874503177805,363.0566930295781,1 46174U 20057BK  26203.70928125  .00085429  00000+0  70425-3 0  9991,2 46174  53.0449 348.7860 0004666 311.9456  48.1162 15.69645015327563
STARLINK-1695,46329,53.0371,0.0007551,15.89206597,299.4600538943532,309.552181530722,1 46329U 20062E   26204.00002315  .00341536  53748-4  11677-2 0  9996,2 46329  53.0371  28.0606 0007551 285.5869 144.7987 15.89206597  5915
STARLINK-1719,46331,53.0241,0.0006926,16.10328025,241.3557471277927,250.5314235546084,1 46331U 20062G   26203.54912800  .01044257  66204-3  10627-2 0  9991,2 46331  53.0241  26.4252 0006926 287.6470  72.3807 16.10328025326109
STARLINK-1762,46342,53.1535,0.0004074,15.42124513,437.0626035337318,442.6178913949652,1 46342U 20062T   26203.43674284  .00042663  00000+0  98536-3 0  9994,2 46342  53.1535  99.5943 0004074  55.1001 305.0387 15.42124513325104
